start=new Date('2022-11-24T00:00:00.000Z').valueOf();
sats=[{"SEMIMAJOR_AXIS":"6917.891","TLE_LINE2":"2 51957  53.2187  25.7875 0002173  34.6964 325.4170 15.08836450 39716","MEAN_MOTION":"15.08836450","MEAN_MOTION_DOT":"0.00000497","EPOCH":"2022-11-23T12:56:32.230752","FILE":"3668134","CLASSIFICATION_TYPE":"U","REF_FRAME":"TEME","EPHEMERIS_TYPE":"0","GP_ID":"218544247","RA_OF_ASC_NODE":"25.7875","OBJECT_TYPE":"PAYLOAD","OBJECT_ID":"2022-025B","ECCENTRICITY":"0.00021730","MEAN_ANOMALY":"325.4170","TIME_SYSTEM":"UTC","OBJECT_NAME":"STARLINK-3694","PERIOD":"95.438","CENTER_NAME":"EARTH","DECAY_DATE":null,"MEAN_MOTION_DDOT":"0.0000000000000","REV_AT_EPOCH":"3971","LAUNCH_DATE":"2022-03-09","INCLINATION":"53.2187","ARG_OF_PERICENTER":"34.6964","BSTAR":"0.00004934000000","COUNTRY_CODE":"US","NORAD_CAT_ID":"51957","RCS_SIZE":"LARGE","ELEMENT_SET_NO":"999","PERIAPSIS":"538.253","MEAN_ELEMENT_THEORY":"SGP4","TLE_LINE1":"1 51957U 22025B   22327.53926193  .00000497  00000-0  49340-4 0  9996","APOAPSIS":"541.259","SITE":"AFETR"},{"MEAN_MOTION_DDOT":"0.0000000000000","DECAY_DATE":null,"CENTER_NAME":"EARTH","REV_AT_EPOCH":"3976","TIME_SYSTEM":"UTC","OBJECT_NAME":"STARLINK-3692","MEAN_ANOMALY":"328.0266","ECCENTRICITY":"0.00020790","OBJECT_ID":"2022-025C","PERIOD":"95.437","GP_ID":"218602940","EPHEMERIS_TYPE":"0","RA_OF_ASC_NODE":"24.2387","REF_FRAME":"TEME","CLASSIFICATION_TYPE":"U","FILE":"3668355","OBJECT_TYPE":"PAYLOAD","TLE_LINE2":"2 51958  53.2177  24.2387 0002079  32.0852 328.0266 15.08846154 39763","SEMIMAJOR_AXIS":"6917.862","EPOCH":"2022-11-23T21:14:40.202592","MEAN_MOTION_DOT":"-0.00000539","MEAN_MOTION":"15.08846154","SITE":"AFETR","TLE_LINE1":"1 51958U 22025C   22327.88518753 -.00000539  00000-0 -15753-4 0  9994","APOAPSIS":"541.165","MEAN_ELEMENT_THEORY":"SGP4","PERIAPSIS":"538.288","ELEMENT_SET_NO":"999","RCS_SIZE":"LARGE","NORAD_CAT_ID":"51958","ARG_OF_PERICENTER":"32.0852","INCLINATION":"53.2177","LAUNCH_DATE":"2022-03-09","COUNTRY_CODE":"US","BSTAR":"-0.00001575300000"},{"OBJECT_TYPE":"PAYLOAD","GP_ID":"218601195","RA_OF_ASC_NODE":"25.4640","EPHEMERIS_TYPE":"0","REF_FRAME":"TEME","CLASSIFICATION_TYPE":"U","FILE":"3668355","EPOCH":"2022-11-23T14:37:13.482048","MEAN_MOTION_DOT":"0.00001099","MEAN_MOTION":"15.08841559","TLE_LINE2":"2 51959  53.2183  25.4640 0002481  32.6908 327.4237 15.08841559 39722","SEMIMAJOR_AXIS":"6917.876","REV_AT_EPOCH":"3972","MEAN_MOTION_DDOT":"0.0000000000000","DECAY_DATE":null,"CENTER_NAME":"EARTH","PERIOD":"95.437","TIME_SYSTEM":"UTC","OBJECT_NAME":"STARLINK-3704","ECCENTRICITY":"0.00024810","MEAN_ANOMALY":"327.4237","OBJECT_ID":"2022-025D","RCS_SIZE":"LARGE","NORAD_CAT_ID":"51959","COUNTRY_CODE":"US","BSTAR":"0.00008714800000","ARG_OF_PERICENTER":"32.6908","INCLINATION":"53.2183","LAUNCH_DATE":"2022-03-09","SITE":"AFETR","MEAN_ELEMENT_THEORY":"SGP4","TLE_LINE1":"1 51959U 22025D   22327.60918382  .00001099  00000-0  87148-4 0  9994","APOAPSIS":"541.457","ELEMENT_SET_NO":"999","PERIAPSIS":"538.024"},{"REV_AT_EPOCH":"3972","MEAN_MOTION_DDOT":"0.0000000000000","DECAY_DATE":null,"CENTER_NAME":"EARTH","PERIOD":"95.438","OBJECT_NAME":"STARLINK-3691","TIME_SYSTEM":"UTC","ECCENTRICITY":"0.00023450","MEAN_ANOMALY":"331.2890","OBJECT_ID":"2022-025E","OBJECT_TYPE":"PAYLOAD","EPHEMERIS_TYPE":"0","GP_ID":"218601445","RA_OF_ASC_NODE":"25.5032","REF_FRAME":"TEME","CLASSIFICATION_TYPE":"U","FILE":"3668355","EPOCH":"2022-11-23T14:26:37.686048","MEAN_MOTION_DOT":"-0.00001018","MEAN_MOTION":"15.08831944","TLE_LINE2":"2 51960  53.2194  25.5032 0002345  28.8231 331.2890 15.08831944 39722","SEMIMAJOR_AXIS":"6917.905","SITE":"AFETR","TLE_LINE1":"1 51960U 22025E   22327.60182507 -.00001018  00000-0 -45860-4 0  9996","APOAPSIS":"541.392","MEAN_ELEMENT_THEORY":"SGP4","ELEMENT_SET_NO":"999","PERIAPSIS":"538.148","RCS_SIZE":"LARGE","NORAD_CAT_ID":"51960","COUNTRY_CODE":"US","BSTAR":"-0.00004586000000","ARG_OF_PERICENTER":"28.8231","INCLINATION":"53.2194","LAUNCH_DATE":"2022-03-09"},{"SEMIMAJOR_AXIS":"6917.890","TLE_LINE2":"2 51961  53.2196  24.2566 0002803  24.6530 335.4595 15.08836958 40874","EPOCH":"2022-11-23T21:09:21.955968","MEAN_MOTION":"15.08836958","MEAN_MOTION_DOT":"0.00000363","REF_FRAME":"TEME","GP_ID":"218577229","EPHEMERIS_TYPE":"0","RA_OF_ASC_NODE":"24.2566","FILE":"3668323","CLASSIFICATION_TYPE":"U","OBJECT_TYPE":"PAYLOAD","MEAN_ANOMALY":"335.4595","ECCENTRICITY":"0.00028030","OBJECT_NAME":"STARLINK-3689","TIME_SYSTEM":"UTC","OBJECT_ID":"2022-025F","PERIOD":"95.438","CENTER_NAME":"EARTH","DECAY_DATE":null,"MEAN_MOTION_DDOT":"0.0000000000000","REV_AT_EPOCH":"4087","INCLINATION":"53.2196","ARG_OF_PERICENTER":"24.6530","LAUNCH_DATE":"2022-03-09","COUNTRY_CODE":"US","BSTAR":"0.00004094400000","NORAD_CAT_ID":"51961","RCS_SIZE":"LARGE","ELEMENT_SET_NO":"999","PERIAPSIS":"537.816","SITE":"AFETR","MEAN_ELEMENT_THEORY":"SGP4","TLE_LINE1":"1 51961U 22025F   22327.88150412  .00000363  00000-0  40944-4 0  9995","APOAPSIS":"541.694"},{"PERIOD":"95.438","OBJECT_ID":"2022-025G","TIME_SYSTEM":"UTC","OBJECT_NAME":"STARLINK-3697","MEAN_ANOMALY":"333.5377","ECCENTRICITY":"0.00025530","REV_AT_EPOCH":"3971","MEAN_MOTION_DDOT":"0.0000000000000","DECAY_DATE":null,"CENTER_NAME":"EARTH","MEAN_MOTION_DOT":"-0.00000954","MEAN_MOTION":"15.08828396","EPOCH":"2022-11-23T12:42:01.151136","TLE_LINE2":"2 51962  53.2176  25.8428 0002553  26.5745 333.5377 15.08828396 39713","SEMIMAJOR_AXIS":"6917.916","OBJECT_TYPE":"PAYLOAD","CLASSIFICATION_TYPE":"U","FILE":"3668134","RA_OF_ASC_NODE":"25.8428","GP_ID":"218544999","EPHEMERIS_TYPE":"0","REF_FRAME":"TEME","PERIAPSIS":"538.015","ELEMENT_SET_NO":"999","MEAN_ELEMENT_THEORY":"SGP4","TLE_LINE1":"1 51962U 22025G   22327.52917999 -.00000954  00000-0 -41813-4 0  9992","APOAPSIS":"541.547","SITE":"AFETR","BSTAR":"-0.00004181300000","COUNTRY_CODE":"US","LAUNCH_DATE":"2022-03-09","ARG_OF_PERICENTER":"26.5745","INCLINATION":"53.2176","RCS_SIZE":"LARGE","NORAD_CAT_ID":"51962"},{"RCS_SIZE":"LARGE","NORAD_CAT_ID":"51963","ARG_OF_PERICENTER":"34.4427","INCLINATION":"53.2180","LAUNCH_DATE":"2022-03-09","COUNTRY_CODE":"US","BSTAR":"-0.00004656700000","SITE":"AFETR","TLE_LINE1":"1 51963U 22025H   22327.67910496 -.00001029  00000-0 -46567-4 0  9999","MEAN_ELEMENT_THEORY":"SGP4","APOAPSIS":"541.358","PERIAPSIS":"538.214","ELEMENT_SET_NO":"999","GP_ID":"218601696","RA_OF_ASC_NODE":"25.1652","EPHEMERIS_TYPE":"0","REF_FRAME":"TEME","CLASSIFICATION_TYPE":"U","FILE":"3668355","OBJECT_TYPE":"PAYLOAD","TLE_LINE2":"2 51963  53.2180  25.1652 0002272  34.4427 325.6712 15.08826738 39739","SEMIMAJOR_AXIS":"6917.921","EPOCH":"2022-11-23T16:17:54.668544","MEAN_MOTION_DOT":"-0.00001029","MEAN_MOTION":"15.08826738","MEAN_MOTION_DDOT":"0.0000000000000","CENTER_NAME":"EARTH","DECAY_DATE":null,"REV_AT_EPOCH":"3973","TIME_SYSTEM":"UTC","OBJECT_NAME":"STARLINK-3675","MEAN_ANOMALY":"325.6712","ECCENTRICITY":"0.00022720","OBJECT_ID":"2022-025H","PERIOD":"95.438"},{"NORAD_CAT_ID":"51964","RCS_SIZE":"LARGE","INCLINATION":"53.2183","ARG_OF_PERICENTER":"29.4896","LAUNCH_DATE":"2022-03-09","COUNTRY_CODE":"US","BSTAR":"0.00002566500000","SITE":"AFETR","TLE_LINE1":"1 51964U 22025J   22327.58709706  .00000120  00000-0  25665-4 0  9995","APOAPSIS":"541.676","MEAN_ELEMENT_THEORY":"SGP4","PERIAPSIS":"537.822","ELEMENT_SET_NO":"999","REF_FRAME":"TEME","RA_OF_ASC_NODE":"25.5827","GP_ID":"218601946","EPHEMERIS_TYPE":"0","FILE":"3668355","CLASSIFICATION_TYPE":"U","OBJECT_TYPE":"PAYLOAD","SEMIMAJOR_AXIS":"6917.884","TLE_LINE2":"2 51964  53.2183  25.5827 0002785  29.4896 330.6253 15.08838787 39726","EPOCH":"2022-11-23T14:05:25.185984","MEAN_MOTION":"15.08838787","MEAN_MOTION_DOT":"0.00000120","CENTER_NAME":"EARTH","DECAY_DATE":null,"MEAN_MOTION_DDOT":"0.0000000000000","REV_AT_EPOCH":"3972","MEAN_ANOMALY":"330.6253","ECCENTRICITY":"0.00027850","OBJECT_NAME":"STARLINK-3690","TIME_SYSTEM":"UTC","OBJECT_ID":"2022-025J","PERIOD":"95.438"},{"PERIAPSIS":"537.643","ELEMENT_SET_NO":"999","SITE":"AFETR","TLE_LINE1":"1 51965U 22025K   22327.66438669  .00002084  00000-0  14905-3 0  9997","MEAN_ELEMENT_THEORY":"SGP4","APOAPSIS":"541.894","COUNTRY_CODE":"US","BSTAR":"0.00014905000000","INCLINATION":"53.2178","ARG_OF_PERICENTER":"25.2436","LAUNCH_DATE":"2022-03-09","NORAD_CAT_ID":"51965","RCS_SIZE":"MEDIUM","PERIOD":"95.438","MEAN_ANOMALY":"334.8706","ECCENTRICITY":"0.00030720","TIME_SYSTEM":"UTC","OBJECT_NAME":"STARLINK-3696","OBJECT_ID":"2022-025K","REV_AT_EPOCH":"3973","CENTER_NAME":"EARTH","DECAY_DATE":null,"MEAN_MOTION_DDOT":"0.0000000000000","EPOCH":"2022-11-23T15:56:43.010016","MEAN_MOTION_DOT":"0.00002084","MEAN_MOTION":"15.08832429","SEMIMAJOR_AXIS":"6917.904","TLE_LINE2":"2 51965  53.2178  25.2364 0003072  25.2436 334.8706 15.08832429 39735","OBJECT_TYPE":"PAYLOAD","REF_FRAME":"TEME","GP_ID":"218602197","RA_OF_ASC_NODE":"25.2364","EPHEMERIS_TYPE":"0","FILE":"3668355","CLASSIFICATION_TYPE":"U"},{"TLE_LINE2":"2 51966  53.2178  26.2059 0002443  34.9816 325.1336 15.08842832 39706","SEMIMAJOR_AXIS":"6917.872","EPOCH":"2022-11-23T10:44:02.672160","MEAN_MOTION":"15.08842832","MEAN_MOTION_DOT":"0.00003883","GP_ID":"218545499","EPHEMERIS_TYPE":"0","RA_OF_ASC_NODE":"26.2059","REF_FRAME":"TEME","CLASSIFICATION_TYPE":"U","FILE":"3668134","OBJECT_TYPE":"PAYLOAD","TIME_SYSTEM":"UTC","OBJECT_NAME":"STARLINK-3699","MEAN_ANOMALY":"325.1336","ECCENTRICITY":"0.00024430","OBJECT_ID":"2022-025L","PERIOD":"95.437","MEAN_MOTION_DDOT":"0.0000000000000","CENTER_NAME":"EARTH","DECAY_DATE":null,"REV_AT_EPOCH":"3970","ARG_OF_PERICENTER":"34.9816","INCLINATION":"53.2178","LAUNCH_DATE":"2022-03-09","COUNTRY_CODE":"US","BSTAR":"0.00026192000000","RCS_SIZE":"LARGE","NORAD_CAT_ID":"51966","ELEMENT_SET_NO":"999","PERIAPSIS":"538.047","SITE":"AFETR","TLE_LINE1":"1 51966U 22025L   22327.44725315  .00003883  00000-0  26192-3 0  9990","APOAPSIS":"541.427","MEAN_ELEMENT_THEORY":"SGP4"}];
